{
    "links": {
        "self": "http://www.neowsapp.com/rest/v1/neo/3762466?api_key=iIulBulltgU6a56xZRHN4H3l9WmuAYTsLGpBGhQ2"
    },
    "id": "3762466",
    "neo_reference_id": "3762466",
    "name": "(2016 TL94)",
    "designation": "2016 TL94",
    "nasa_jpl_url": "http://ssd.jpl.nasa.gov/sbdb.cgi?sstr=3762466",
    "absolute_magnitude_h": 24.065,
    "estimated_diameter": {
        "kilometers": {
            "estimated_diameter_min": 0.0408841503,
            "estimated_diameter_max": 0.0914197394
        },
        "meters": {
            "estimated_diameter_min": 40.8841503393,
            "estimated_diameter_max": 91.4197393609
        },
        "miles": {
            "estimated_diameter_min": 0.0254042254,
            "estimated_diameter_max": 0.0568055749
        },
        "feet": {
            "estimated_diameter_min": 134.134355799,
            "estimated_diameter_max": 299.9335376848
        }
    },
    "is_potentially_hazardous_asteroid": false,
    "close_approach_data": [
        {
            "close_approach_date": "2016-10-12",
            "close_approach_date_full": "2016-Oct-12 20:09",
            "epoch_date_close_approach": 1476302940000,
            "relative_velocity": {
                "kilometers_per_second": "5.844994775",
                "kilometers_per_hour": "21041.9811898763",
                "miles_per_hour": "13074.6688121207"
            },
            "miss_distance": {
                "astronomical": "0.0989305038",
                "lunar": "38.4839659782",
                "kilometers": "14799792.646506906",
                "miles": "9196164.7187150628"
            },
            "orbiting_body": "Earth"
        }
    ],
    "orbital_data": {
        "orbit_id": "2",
        "orbit_determination_date": "2017-04-06 08:22:56",
        "first_observation_date": "2016-10-13",
        "last_observation_date": "2016-10-14",
        "data_arc_in_days": 1,
        "observations_used": 9,
        "orbit_uncertainty": "9",
        "minimum_orbit_intersection": ".0607199",
        "jupiter_tisserand_invariant": "4.230",
        "epoch_osculation": "2457675.5",
        "eccentricity": ".355898455999677",
        "semi_major_axis": "1.633443099919051",
        "inclination": "3.808330128308173",
        "ascending_node_longitude": "203.5243295133747",
        "orbital_period": "762.5256249237866",
        "perihelion_distance": "1.052103222694535",
        "perihelion_argument": "195.4845871947434",
        "aphelion_distance": "2.214782977143568",
        "perihelion_time": "2457688.634945482776",
        "mean_anomaly": "353.7987915169776",
        "mean_motion": ".4721152814188789",
        "equinox": "J2000",
        "orbit_class": {
            "orbit_class_type": "AMO",
            "orbit_class_description": "Near-Earth asteroid orbits similar to that of 1221 Amor",
            "orbit_class_range": "1.017 AU < q (perihelion) < 1.3 AU"
        }
    },
    "is_sentry_object": false
}